STARLINK-30997          
1 58482U 23186K   26068.01059115  .00023746  00000+0  89142-3 0  9999
2 58482  42.9998  67.3412 0000499 244.0827 115.9973 15.26763988125796
LIME                    
1 62648U 25009AR  26068.73906781  .00013254  00000+0  47723-3 0  9995
2 62648  97.3985 151.4831 0001635  35.9029 324.2320 15.28703313 63766
